BEIDOU-2 IGSO-1 (C06)   
1 36828U 10036A   24285.63723772 -.00000114  00000+0  00000+0 0  9990
2 36828  54.2542 168.5167 0040838 203.3275 342.3592  1.00248585 52053
BEIDOU-2 G4 (C04)       
1 37210U 10057A   24288.57896750 -.00000112  00000+0  00000+0 0  9990
2 37210   2.1306  69.8274 0008507 167.6589 154.6350  1.00270030 51165
BEIDOU-2 IGSO-2 (C07)   
1 37256U 10068A   24287.90555024 -.00000185  00000+0  00000+0 0  9994
2 37256  48.6642 279.3697 0039888 218.3983 318.7600  1.00264559 50662
BEIDOU-2 IGSO-3 (C08)   
1 37384U 11013A   24288.25105038 -.00000181  00000+0  00000+0 0  9998
2 37384  61.5328  45.9692 0032526 176.6698 358.9345  1.00278433 49534
BEIDOU-2 IGSO-4 (C09)   
1 37763U 11038A   24287.67630279 -.00000051  00000+0  00000+0 0  9997
2 37763  54.5600 171.1347 0129128 228.8631 321.7939  1.00282943 48516
BEIDOU-2 IGSO-5 (C10)   
1 37948U 11073A   24287.87736191 -.00000133  00000+0  00000+0 0  9994
2 37948  48.7987 279.0644 0102709 222.0390 293.4079  1.00265593 47001
BEIDOU-2 G5 (C05)       
1 38091U 12008A   24288.49086221  .00000055  00000+0  00000+0 0  9996
2 38091   2.0501  70.6337 0007812 220.7308 327.7179  1.00275163 46244
BEIDOU-2 M3 (C11)       
1 38250U 12018A   24288.13649198 -.00000038  00000+0  00000+0 0  9995
2 38250  56.2543 325.3795 0025202 263.3070  96.4733  1.86233428 84563
BEIDOU-2 M4 (C12)       
1 38251U 12018B   24287.52968597 -.00000036  00000+0  00000+0 0  9993
2 38251  56.1605 324.6624 0016060 263.7970  96.0867  1.86231850 84550
BEIDOU-2 M6 (C14)       
1 38775U 12050B   24287.23924116  .00000052  00000+0  00000+0 0  9994
2 38775  56.0111  83.2202 0010563 347.6394  12.3558  1.86230967 82268
BEIDOU-2 G6 (C02)       
1 38953U 12059A   24288.49581439 -.00000175  00000+0  00000+0 0  9994
2 38953   2.8600  79.5067 0006352 303.1207 263.4461  1.00273149 43787
BEIDOU-3S IGSO-1S (C31) 
1 40549U 15019A   24288.49859456 -.00000158  00000+0  00000+0 0  9995
2 40549  50.3519 302.7785 0036402 198.5265 158.6239  1.00278344 34943
BEIDOU-3S M2S (C58)     
1 40748U 15037A   24287.72972326 -.00000035  00000+0  00000+0 0  9997
2 40748  55.3889 323.0018 0013079 252.8258 107.0960  1.86228989 62736
BEIDOU-3S M1S (C57)     
1 40749U 15037B   24287.46565667 -.00000035  00000+0  00000+0 0  9995
2 40749  55.3917 322.9973 0003571 314.5305  45.5054  1.86227484 62720
BEIDOU-3S IGSO-2S (C56) 
1 40938U 15053A   24287.90785116 -.00000134  00000+0  00000+0 0  9995
2 40938  50.1781 266.0155 0052685 190.1589 350.1505  1.00278994 33221
BEIDOU-2 IGSO-6 (C13)   
1 41434U 16021A   24287.80088093 -.00000152  00000+0  00000+0 0  9992
2 41434  59.3585  44.1617 0053821 222.4960 139.3080  1.00291152 31346
BEIDOU-2 G7 (C03)       
1 41586U 16037A   24288.47202198 -.00000355  00000+0  00000+0 0  9990
2 41586   1.6616  66.3641 0007049 351.8097 245.7899  1.00275066   769
BEIDOU-3 M1 (C19)       
1 43001U 17069A   24288.07903788  .00000048  00000+0  00000+0 0  9997
2 43001  56.1619  83.3045 0007100 303.1919  56.7583  1.86231120 47228
BEIDOU-3 M2 (C20)       
1 43002U 17069B   24288.01656089  .00000048  00000+0  00000+0 0  9991
2 43002  56.1611  83.3424 0005323 341.7737  18.2259  1.86230871 47217
BEIDOU-3 M7 (C27)       
1 43107U 18003A   24287.76462803 -.00000038  00000+0  00000+0 0  9996
2 43107  54.8473 323.5395 0002278  80.0290 280.0615  1.86232339 45969
BEIDOU-3 M8 (C28)       
1 43108U 18003B   24287.70605125 -.00000038  00000+0  00000+0 0  9997
2 43108  54.8402 323.5265 0005105 256.6282 103.3796  1.86230795 45974
BEIDOU-3 M4 (C22)       
1 43207U 18018A   24287.07324983  .00000053  00000+0  00000+0 0  9999
2 43207  56.1194  83.4231 0004379  30.2630 329.7841  1.86231075 45345
BEIDOU-3 M3 (C21)       
1 43208U 18018B   24287.13988121  .00000053  00000+0  00000+0 0  9997
2 43208  56.1191  83.4251 0004916 323.4305  36.5577  1.86231096 45340
BEIDOU-3 M9 (C29)       
1 43245U 18029A   24287.89704545 -.00000035  00000+0  00000+0 0  9990
2 43245  54.7270 321.2316 0002304 247.4928 112.5461  1.86232391 44517
BEIDOU-3 M10 (C30)      
1 43246U 18029B   24286.75265204 -.00000032  00000+0  00000+0 0  9996
2 43246  54.7251 321.2983 0003030 343.1118  16.9412  1.86232805 44488
BEIDOU-2 IGSO-7 (C16)   
1 43539U 18057A   24287.98052701 -.00000124  00000+0  00000+0 0  9996
2 43539  55.1471 168.3548 0078028 232.8031  88.2053  1.00275332 23002
BEIDOU-3 M5 (C23)       
1 43581U 18062A   24288.05131979 -.00000003  00000+0  00000+0 0  9999
2 43581  54.1194 203.0892 0003388 303.5004  56.4891  1.86228536 42255
BEIDOU-3 M6 (C24)       
1 43582U 18062B   24287.37959593 -.00000005  00000+0  00000+0 0  9996
2 43582  54.1192 203.1015 0005987  23.3592 336.6895  1.86229673 42247
BEIDOU-3 M12 (C26)      
1 43602U 18067A   24287.31297021 -.00000004  00000+0  00000+0 0  9998
2 43602  54.2104 201.7958 0007961  27.3098 332.7560  1.86227582 41728
BEIDOU-3 M11 (C25)      
1 43603U 18067B   24287.98330334 -.00000002  00000+0  00000+0 0  9995
2 43603  54.2075 201.7379 0004710  18.2993 341.7421  1.86227090 41769
BEIDOU-3 M13 (C32)      
1 43622U 18072A   24287.94478857  .00000048  00000+0  00000+0 0  9990
2 43622  56.0923  82.9215 0003932 299.5349  60.4443  1.86231145 41275
BEIDOU-3 M14 (C33)      
1 43623U 18072B   24287.81025218  .00000048  00000+0  00000+0 0  9996
2 43623  56.0940  82.9193 0002453   2.9475 357.0729  1.86231152 41262
BEIDOU-3 M16 (C35)      
1 43647U 18078A   24288.50926367 -.00000038  00000+0  00000+0 0  9990
2 43647  54.6228 321.2986 0006014   8.8492 351.2243  1.86232124 40784
BEIDOU-3 M15 (C34)      
1 43648U 18078B   24288.10143859 -.00000036  00000+0  00000+0 0  9992
2 43648  54.6188 321.3151 0002656   6.8516 353.2152  1.86232116 40791
BEIDOU-3 G1 (C59)       
1 43683U 18085A   24288.51786094 -.00000277  00000+0  00000+0 0  9995
2 43683   2.4813 105.2404 0002359  36.4407 208.3910  1.00272783 21931
BEIDOU-3 M17 (C36)      
1 43706U 18093A   24287.17945507 -.00000005  00000+0  00000+0 0  9996
2 43706  54.2027 203.0660 0008364 291.7649  68.1679  1.86228217 40129
BEIDOU-3 M18 (C37)      
1 43707U 18093B   24288.11774062 -.00000003  00000+0  00000+0 0  9996
2 43707  54.2033 203.0260 0007224 324.5916  35.3825  1.86229734 40156
BEIDOU-3 IGSO-1 (C38)   
1 44204U 19023A   24288.21710208 -.00000213  00000+0  00000+0 0  9999
2 44204  57.8214  43.9849 0024689 207.0172 329.4213  1.00265365  1089
BEIDOU-2 G8 (C01)       
1 44231U 19027A   24288.55535432 -.00000248  00000+0  00000+0 0  9992
2 44231   1.7688  74.4844 0003915 185.9738 107.6134  1.00269647 19957
BEIDOU-3 IGSO-2 (C39)   
1 44337U 19035A   24288.34904102 -.00000116  00000+0  00000+0 0  9993
2 44337  55.1819 164.2260 0034792 201.6755 261.2565  1.00259715 19540
BEIDOU-3 M24 (C46)      
1 44542U 19061A   24288.18762041 -.00000003  00000+0  00000+0 0  9991
2 44542  54.4301 203.3416 0008665   1.6278 358.3965  1.86229330 34411
BEIDOU-3 M23 (C45)      
1 44543U 19061B   24287.43018395 -.00000005  00000+0  00000+0 0  9997
2 44543  54.4288 203.3360 0005532 350.9961 133.7803  1.86229447 34395
BEIDOU-3 IGSO-3 (C40)   
1 44709U 19073A   24288.40238874 -.00000160  00000+0  00000+0 0  9990
2 44709  55.8498 287.4598 0041098 191.0949 168.8168  1.00266089 18338
BEIDOU-3 M22 (C44)      
1 44793U 19078A   24287.49554182 -.00000034  00000+0  00000+0 0  9999
2 44793  54.4711 321.2514 0004647  14.2851 345.7912  1.86232013 33262
BEIDOU-3 M21 (C43)      
1 44794U 19078B   24288.16198091 -.00000037  00000+0  00000+0 0  9991
2 44794  54.4441 321.2016 0002825 355.9325   4.1280  1.86232490 33271
BEIDOU-3 M19 (C41)      
1 44864U 19090A   24286.80141997  .00000052  00000+0  00000+0 0  9991
2 44864  56.0250  83.1246 0015522 279.2068  80.9655  1.86231446 32833
BEIDOU-3 M20 (C42)      
1 44865U 19090B   24287.80675922  .00000049  00000+0  00000+0 0  9999
2 44865  56.0276  83.1246 0012979 294.0639 109.8389  1.86231354 32837
BEIDOU-3 G2 (C60)       
1 45344U 20017A   24288.49503247 -.00000142  00000+0  00000+0 0  9994
2 45344   2.4751  33.8072 0003845 194.4726  53.5184  1.00272053 17135
BEIDOU-3 G3 (C61)       
1 45807U 20040A   24288.47202198 -.00000355  00000+0  00000+0 0  9999
2 45807   1.0025  53.5844 0002825 297.5201 312.9075  1.00268417 15941
BEIDOU-3 G4 (C62)       
1 56564U 23066A   24288.57896750 -.00000117  00000+0  00000+0 0  9992
2 56564   1.8312 288.6662 0005688 241.4421 221.9588  1.00272199  5276
BEIDOU-3 M28 (C50)      
1 58654U 23207A   24287.17095677  .00000049  00000+0  00000+0 0  9998
2 58654  55.2106  83.0457 0000808 202.3127 157.7054  1.86232040  5447
BEIDOU-3 M26 (C48)      
1 58655U 23207B   24288.04406140  .00000045  00000+0  00000+0 0  9993
2 58655  55.2133  83.0015 0002264 214.8936 145.1102  1.86231571  5445
